{
    "links": {
        "self": "http://www.neowsapp.com/rest/v1/neo/3566534?api_key=iIulBulltgU6a56xZRHN4H3l9WmuAYTsLGpBGhQ2"
    },
    "id": "3566534",
    "neo_reference_id": "3566534",
    "name": "(2011 KL12)",
    "designation": "2011 KL12",
    "nasa_jpl_url": "http://ssd.jpl.nasa.gov/sbdb.cgi?sstr=3566534",
    "absolute_magnitude_h": 22.2,
    "estimated_diameter": {
        "kilometers": {
            "estimated_diameter_min": 0.096506147,
            "estimated_diameter_max": 0.2157943048
        },
        "meters": {
            "estimated_diameter_min": 96.5061469579,
            "estimated_diameter_max": 215.7943048444
        },
        "miles": {
            "estimated_diameter_min": 0.059966121,
            "estimated_diameter_max": 0.134088323
        },
        "feet": {
            "estimated_diameter_min": 316.6212271853,
            "estimated_diameter_max": 707.9865871058
        }
    },
    "is_potentially_hazardous_asteroid": false,
    "close_approach_data": [
        {
            "close_approach_date": "2011-05-26",
            "close_approach_date_full": "2011-May-26 12:34",
            "epoch_date_close_approach": 1306413240000,
            "relative_velocity": {
                "kilometers_per_second": "18.0231471613",
                "kilometers_per_hour": "64883.3297805281",
                "miles_per_hour": "40315.9778850176"
            },
            "miss_distance": {
                "astronomical": "0.1098357411",
                "lunar": "42.7261032879",
                "kilometers": "16431192.918431457",
                "miles": "10209869.8415578266"
            },
            "orbiting_body": "Earth"
        }
    ],
    "orbital_data": {
        "orbit_id": "8",
        "orbit_determination_date": "2017-04-06 08:53:26",
        "first_observation_date": "2011-05-25",
        "last_observation_date": "2011-06-02",
        "data_arc_in_days": 8,
        "observations_used": 32,
        "orbit_uncertainty": "9",
        "minimum_orbit_intersection": ".0627543",
        "jupiter_tisserand_invariant": "4.177",
        "epoch_osculation": "2455709.5",
        "eccentricity": ".3798307979385701",
        "semi_major_axis": "1.567815518411358",
        "inclination": "32.290110691838",
        "ascending_node_longitude": "239.0419031932518",
        "orbital_period": "717.0358421764432",
        "perihelion_distance": ".9723108990326987",
        "perihelion_argument": "50.61463557223701",
        "aphelion_distance": "2.163320137790016",
        "perihelion_time": "2455752.093139700817",
        "mean_anomaly": "338.6153921598232",
        "mean_motion": ".5020669523398995",
        "equinox": "J2000",
        "orbit_class": {
            "orbit_class_type": "APO",
            "orbit_class_description": "Near-Earth asteroid orbits which cross the Earth’s orbit similar to that of 1862 Apollo",
            "orbit_class_range": "a (semi-major axis) > 1.0 AU; q (perihelion) < 1.017 AU"
        }
    },
    "is_sentry_object": false
}